{"type": "FeatureCollection", "features": [ {"type": "Feature", "properties": {"norad_id": 28649, "name": "IRS-P5 (CARTOSAT-1)", "group": "resource", "lat": 26.10591114433155, "lon": -162.12190703571633, "alt_km": 596.0611290549241, "timestamp": "2025-12-13T18:50:04.084817+00:00", "meta": {"OBJECT_NAME": "IRS-P5 (CARTOSAT-1)", "OBJECT_ID": "2005-017A", "EPOCH": "2025-12-13T02:02:05.724672", "MEAN_MOTION": 14.90406572, "ECCENTRICITY": 0.00012037, "INCLINATION": 97.5498, "RA_OF_ASC_NODE": 13.4828, "ARG_OF_PERICENTER": 47.6046, "MEAN_ANOMALY": 312.5275, "EPHEMERIS_TYPE": 0, "CLASSIFICATION_TYPE": "U", "NORAD_CAT_ID": 28649, "ELEMENT_SET_NO": 999, "REV_AT_EPOCH": 11609, "BSTAR": 0.00030479255, "MEAN_MOTION_DOT": 2.917e-05, "MEAN_MOTION_DDOT": 0}, "tle": {"line1": "1 28649U 05017A   25347.08478848  .00002917  00000+0  30479-3 0  9994", "line2": "2 28649  97.5498  13.4828 0001203  47.6046 312.5275 14.90406572116092"}}, "geometry": {"type": "Point", "coordinates": [-162.12190703571633, 26.10591114433155]}}, {"type": "Feature", "properties": {"norad_id": 28893, "name": "SINAH 1", "group": "resource", "lat": 46.752750642030236, "lon": 107.46002070413898, "alt_km": 675.5802936367982, "timestamp": "2025-12-13T18:50:04.084828+00:00", "meta": {"OBJECT_NAME": "SINAH 1", "OBJECT_ID": "2005-043D", "EPOCH": "2025-12-13T07:08:09.457152", "MEAN_MOTION": 14.63963857, "ECCENTRICITY": 0.00153705, "INCLINATION": 98.2603, "RA_OF_ASC_NODE": 115.856, "ARG_OF_PERICENTER": 135.3444, "MEAN_ANOMALY": 224.8999, "EPHEMERIS_TYPE": 0, "CLASSIFICATION_TYPE": "U", "NORAD_CAT_ID": 28893, "ELEMENT_SET_NO": 999, "REV_AT_EPOCH": 7332, "BSTAR": 0.00016281533, "MEAN_MOTION_DOT": 8.05e-06, "MEAN_MOTION_DDOT": 0}, "tle": {"line1": "1 28893U 05043D   25347.29733168  .00000805  00000+0  16282-3 0  9996", "line2": "2 28893  98.2603 115.8560 0015370 135.3444 224.8999 14.63963857 73326"}}, "geometry": {"type": "Point", "coordinates": [107.46002070413898, 46.752750642030236]}}, {"type": "Feature", "properties": {"norad_id": 29079, "name": "EROS B", "group": "resource", "lat": 82.62875449596939, "lon": 18.584057333124527, "alt_km": 356.3464313570312, "timestamp": "2025-12-13T18:50:04.084839+00:00", "meta": {"OBJECT_NAME": "EROS B", "OBJECT_ID": "2006-014A", "EPOCH": "2025-12-13T06:12:22.691808", "MEAN_MOTION": 15.68506441, "ECCENTRICITY": 0.00022754, "INCLINATION": 97.3466, "RA_OF_ASC_NODE": 103.8564, "ARG_OF_PERICENTER": 305.8705, "MEAN_ANOMALY": 54.2345, "EPHEMERIS_TYPE": 0, "CLASSIFICATION_TYPE": "U", "NORAD_CAT_ID": 29079, "ELEMENT_SET_NO": 999, "REV_AT_EPOCH": 9088, "BSTAR": 0.0019956122, "MEAN_MOTION_DOT": 0.00231051, "MEAN_MOTION_DDOT": 0}, "tle": {"line1": "1 29079U 06014A   25347.25859597  .00231051  00000+0  19956-2 0  9992", "line2": "2 29079  97.3466 103.8564 0002275 305.8705  54.2345 15.68506441 90883"}}, "geometry": {"type": "Point", "coordinates": [18.584057333124527, 82.62875449596939]}}, {"type": "Feature", "properties": {"norad_id": 29228, "name": "RESURS-DK 1", "group": "resource", "lat": 24.23444176924574, "lon": -90.33244229157985, "alt_km": 529.5830184127426, "timestamp": "2025-12-13T18:50:04.084850+00:00", "meta": {"OBJECT_NAME": "RESURS-DK 1", "OBJECT_ID": "2006-021A", "EPOCH": "2025-12-13T07:02:31.809408", "MEAN_MOTION": 15.12166735, "ECCENTRICITY": 0.00071541, "INCLINATION": 69.9332, "RA_OF_ASC_NODE": 100.4076, "ARG_OF_PERICENTER": 258.5455, "MEAN_ANOMALY": 101.4907, "EPHEMERIS_TYPE": 0, "CLASSIFICATION_TYPE": "U", "NORAD_CAT_ID": 29228, "ELEMENT_SET_NO": 999, "REV_AT_EPOCH": 7446, "BSTAR": 0.00025921392, "MEAN_MOTION_DOT": 4.378e-05, "MEAN_MOTION_DDOT": 0}, "tle": {"line1": "1 29228U 06021A   25347.29342372  .00004378  00000+0  25921-3 0  9998", "line2": "2 29228  69.9332 100.4076 0007154 258.5455 101.4907 15.12166735 74466"}}, "geometry": {"type": "Point", "coordinates": [-90.33244229157985, 24.23444176924574]}}, {"type": "Feature", "properties": {"norad_id": 29268, "name": "ARIRANG-2 (KOMPSAT-2)", "group": "resource", "lat": -44.46385726689764, "lon": -176.0352312299347, "alt_km": 676.0083450353113, "timestamp": "2025-12-13T18:50:04.084862+00:00", "meta": {"OBJECT_NAME": "ARIRANG-2 (KOMPSAT-2)", "OBJECT_ID": "2006-031A", "EPOCH": "2025-12-13T08:07:18.053760", "MEAN_MOTION": 14.64494867, "ECCENTRICITY": 0.00134952, "INCLINATION": 97.8264, "RA_OF_ASC_NODE": 175.7821, "ARG_OF_PERICENTER": 307.3171, "MEAN_ANOMALY": 175.8461, "EPHEMERIS_TYPE": 0, "CLASSIFICATION_TYPE": "U", "NORAD_CAT_ID": 29268, "ELEMENT_SET_NO": 999, "REV_AT_EPOCH": 3427, "BSTAR": 0.00015288685, "MEAN_MOTION_DOT": 7.66e-06, "MEAN_MOTION_DDOT": 0}, "tle": {"line1": "1 29268U 06031A   25347.33840340  .00000766  00000+0  15289-3 0  9999", "line2": "2 29268  97.8264 175.7821 0013495 307.3171 175.8461 14.64494867 34271"}}, "geometry": {"type": "Point", "coordinates": [-176.0352312299347, -44.46385726689764]}}, {"type": "Feature", "properties": {"norad_id": 29709, "name": "LAPAN-TUBSAT", "group": "resource", "lat": -30.68506950534545, "lon": -17.173588329107222, "alt_km": 619.4106164793711, "timestamp": "2025-12-13T18:50:04.084873+00:00", "meta": {"OBJECT_NAME": "LAPAN-TUBSAT", "OBJECT_ID": "2007-001A", "EPOCH": "2025-12-13T06:02:33.061056", "MEAN_MOTION": 14.85670987, "ECCENTRICITY": 0.00135549, "INCLINATION": 98.126, "RA_OF_ASC_NODE": 337.4187, "ARG_OF_PERICENTER": 72.5267, "MEAN_ANOMALY": 287.7428, "EPHEMERIS_TYPE": 0, "CLASSIFICATION_TYPE": "U", "NORAD_CAT_ID": 29709, "ELEMENT_SET_NO": 999, "REV_AT_EPOCH": 2354, "BSTAR": 0.00012675778, "MEAN_MOTION_DOT": 1.043e-05, "MEAN_MOTION_DDOT": 0}, "tle": {"line1": "1 29709U 07001A   25347.25177154  .00001043  00000+0  12676-3 0  9990", "line2": "2 29709  98.1260 337.4187 0013554  72.5267 287.7428 14.85670987 23542"}}, "geometry": {"type": "Point", "coordinates": [-17.173588329107222, -30.68506950534545]}}, {"type": "Feature", "properties": {"norad_id": 31113, "name": "HAIYANG-1B", "group": "resource", "lat": 8.667232952026644, "lon": -29.260302193030405, "alt_km": 781.0726943059117, "timestamp": "2025-12-13T18:50:04.084884+00:00", "meta": {"OBJECT_NAME": "HAIYANG-1B", "OBJECT_ID": "2007-010A", "EPOCH": "2025-12-13T05:22:06.685536", "MEAN_MOTION": 14.3096537, "ECCENTRICITY": 0.00142431, "INCLINATION": 98.3315, "RA_OF_ASC_NODE": 331.4818, "ARG_OF_PERICENTER": 36.5718, "MEAN_ANOMALY": 323.6436, "EPHEMERIS_TYPE": 0, "CLASSIFICATION_TYPE": "U", "NORAD_CAT_ID": 31113, "ELEMENT_SET_NO": 999, "REV_AT_EPOCH": 97403, "BSTAR": 0.00010171933, "MEAN_MOTION_DOT": 2.26e-06, "MEAN_MOTION_DDOT": 0}, "tle": {"line1": "1 31113U 07010A   25347.22368849  .00000226  00000+0  10172-3 0  9993", "line2": "2 31113  98.3315 331.4818 0014243  36.5718 323.6436 14.30965370974030"}}, "geometry": {"type": "Point", "coordinates": [-29.260302193030405, 8.667232952026644]}}, {"type": "Feature", "properties": {"norad_id": 31598, "name": "COSMO-SKYMED 1", "group": "resource", "lat": -36.49956652292933, "lon": 179.07509139921612, "alt_km": 586.8405255658236, "timestamp": "2025-12-13T18:50:04.084895+00:00", "meta": {"OBJECT_NAME": "COSMO-SKYMED 1", "OBJECT_ID": "2007-023A", "EPOCH": "2025-12-13T07:45:38.061216", "MEAN_MOTION": 14.95772291, "ECCENTRICITY": 0.00012687, "INCLINATION": 97.8834, "RA_OF_ASC_NODE": 172.7261, "ARG_OF_PERICENTER": 89.6071, "MEAN_ANOMALY": 270.5295, "EPHEMERIS_TYPE": 0, "CLASSIFICATION_TYPE": "U", "NORAD_CAT_ID": 31598, "ELEMENT_SET_NO": 999, "REV_AT_EPOCH": 199, "BSTAR": 0.00055937833, "MEAN_MOTION_DOT": 6.181e-05, "MEAN_MOTION_DDOT": 0}, "tle": {"line1": "1 31598U 07023A   25347.32335719  .00006181  00000+0  55938-3 0  9990", "line2": "2 31598  97.8834 172.7261 0001268  89.6071 270.5295 14.95772291  1997"}}, "geometry": {"type": "Point", "coordinates": [179.07509139921612, -36.49956652292933]}}, {"type": "Feature", "properties": {"norad_id": 31698, "name": "TERRASAR-X", "group": "resource", "lat": 65.71529318566371, "lon": -23.698132385905268, "alt_km": 500.73250495825505, "timestamp": "2025-12-13T18:50:04.084916+00:00", "meta": {"OBJECT_NAME": "TERRASAR-X", "OBJECT_ID": "2007-026A", "EPOCH": "2025-12-12T14:05:10.891104", "MEAN_MOTION": 15.19146945, "ECCENTRICITY": 0.00019276, "INCLINATION": 97.4459, "RA_OF_ASC_NODE": 351.9708, "ARG_OF_PERICENTER": 85.8663, "MEAN_ANOMALY": 274.2792, "EPHEMERIS_TYPE": 0, "CLASSIFICATION_TYPE": "U", "NORAD_CAT_ID": 31698, "ELEMENT_SET_NO": 999, "REV_AT_EPOCH": 2489, "BSTAR": 0.00011245028, "MEAN_MOTION_DOT": 2.295e-05, "MEAN_MOTION_DDOT": 0}, "tle": {"line1": "1 31698U 07026A   25346.58693161  .00002295  00000+0  11245-3 0  9994", "line2": "2 31698  97.4459 351.9708 0001927  85.8663 274.2792 15.19146945 24896"}}, "geometry": {"type": "Point", "coordinates": [-23.698132385905268, 65.71529318566371]}}, {"type": "Feature", "properties": {"norad_id": 32060, "name": "WORLDVIEW-1 (WV-1)", "group": "resource", "lat": 82.54947483883205, "lon": 22.707299794725486, "alt_km": 483.6272888939875, "timestamp": "2025-12-13T18:50:04.084936+00:00", "meta": {"OBJECT_NAME": "WORLDVIEW-1 (WV-1)", "OBJECT_ID": "2007-041A", "EPOCH": "2025-12-13T07:25:11.755776", "MEAN_MOTION": 15.24706719, "ECCENTRICITY": 8.155e-05, "INCLINATION": 97.3831, "RA_OF_ASC_NODE": 104.7817, "ARG_OF_PERICENTER": 108.8307, "MEAN_ANOMALY": 251.3019, "EPHEMERIS_TYPE": 0, "CLASSIFICATION_TYPE": "U", "NORAD_CAT_ID": 32060, "ELEMENT_SET_NO": 999, "REV_AT_EPOCH": 1456, "BSTAR": 0.00053291404, "MEAN_MOTION_DOT": 0.00013123, "MEAN_MOTION_DDOT": 0}, "tle": {"line1": "1 32060U 07041A   25347.30916384  .00013123  00000+0  53291-3 0  9990", "line2": "2 32060  97.3831 104.7817 0000815 108.8307 251.3019 15.24706719 14562"}}, "geometry": {"type": "Point", "coordinates": [22.707299794725486, 82.54947483883205]}}]}